0 ARIANE 1 DEB
1 17255U 85056C   13281.22541277  .00001139  00000-0  48904-2 0   283
2 17255 008.5415 002.3057 6616940 306.8690 009.2795 02.99666061202175
0 ARIANE 1 DEB
1 17255U 85056C   13282.22632312  .00001119  00000-0  48726-2 0   296
2 17255 008.5412 001.8059 6616992 307.8897 009.0492 02.99670698202202
0 ARIANE 1 DEB
1 17255U 85056C   13282.89358667  .00000989  00000-0  43625-2 0   306
2 17255 008.5404 001.4542 6617100 308.5876 008.8952 02.99670702202229
0 ARIANE 1 DEB
1 17255U 85056C   13283.22721445  .00001036  00000-0  45428-2 0   310
2 17255 008.5402 001.2777 6617236 308.9385 008.8184 02.99672118202235
0 ARIANE 1 DEB
1 17255U 85056C   13286.22986867  .00001108  00000-0  46910-2 0   322
2 17255 008.5378 359.6817 6617525 312.0997 008.1688 02.99679755202324
0 ARIANE 1 DEB
1 17255U 85056C   13287.23075201  .00001188  00000-0  49056-2 0   338
2 17255 008.5369 359.1506 6617545 313.1540 007.9641 02.99682770202352
0 ARIANE 1 DEB
1 17255U 85056C   13288.23163005  .00001355  00000-0  54970-2 0   347
2 17255 008.5358 358.6201 6617546 314.2080 007.7614 02.99686438202384
0 ARIANE 1 DEB
1 17255U 85056C   13289.23249368  .00001160  00000-0  46597-2 0   356
2 17255 008.5347 358.0893 6617612 315.2612 007.5585 02.99689951202411
0 ARIANE 1 DEB
1 17255U 85056C   13290.23334388  .00001224  00000-0  49222-2 0   365
2 17255 008.5336 357.5577 6617558 316.3161 007.3542 02.99691754202440
0 ARIANE 1 DEB
1 17255U 85056C   13291.23418972  .00001062  00000-0  43211-2 0   371
2 17255 008.5340 357.0166 6617587 317.3772 007.1467 02.99692272202478
0 ARIANE 1 DEB
1 17255U 85056C   13292.23500852  .00001154  00000-0  47989-2 0   380
2 17255 008.5381 356.4468 6617389 318.4662 006.9335 02.99696298202508
0 ARIANE 1 DEB
1 17255U 85056C   13294.23666533  .00001026  00000-0  44730-2 0   391
2 17255 008.5281 355.4379 6617894 320.5188 006.5296 02.99701689202564
